[{"OBJECT_NAME":"QIANFAN-71","OBJECT_ID":"2025-016S","EPOCH":"2026-03-09T21:11:40.299648","MEAN_MOTION":13.50996794,"ECCENTRICITY":0.00179065,"INCLINATION":88.9678,"RA_OF_ASC_NODE":94.0594,"ARG_OF_PERICENTER":96.7251,"MEAN_ANOMALY":263.5939,"EPHEMERIS_TYPE":0,"CLASSIFICATION_TYPE":"U","NORAD_CAT_ID":62801,"ELEMENT_SET_NO":999,"REV_AT_EPOCH":5900,"BSTAR":3.9490459e-5,"MEAN_MOTION_DOT":3.8e-7,"MEAN_MOTION_DDOT":0},{"OBJECT_NAME":"DELTA 1 DEB","OBJECT_ID":"1976-077AT","EPOCH":"2026-03-09T13:15:34.023168","MEAN_MOTION":13.22232627,"ECCENTRICITY":0.02753569,"INCLINATION":101.9087,"RA_OF_ASC_NODE":279.4064,"ARG_OF_PERICENTER":165.4503,"MEAN_ANOMALY":255.6713,"EPHEMERIS_TYPE":0,"CLASSIFICATION_TYPE":"U","NORAD_CAT_ID":10746,"ELEMENT_SET_NO":999,"REV_AT_EPOCH":33995,"BSTAR":0.0048574331,"MEAN_MOTION_DOT":2.413e-5,"MEAN_MOTION_DDOT":0}]
